FLOCK 4BE-11            
1 60501U 24149AK  26087.76009655  .00024013  00000+0  60016-3 0  9998
2 60501  97.3724 171.1338 0004434 185.5730 174.5468 15.40127079 89967
FLOCK 4BE-33            
1 60502U 24149AL  26087.78990556  .00288430  00000+0  20548-2 0  9990
2 60502  97.3650 173.2852 0007170 197.0638 163.0385 15.72960541 90108
FLOCK 4BE-10            
1 60503U 24149AM  26087.78285206  .00589989  00000+0  22021-2 0  9991
2 60503  97.3666 175.2603 0005047 233.9187 126.1617 15.86533636 90207
YAM-7                   
1 60504U 24149AN  26087.74403245  .00009257  00000+0  31508-3 0  9999
2 60504  97.3811 168.3832 0002965 193.7619 166.3541 15.30633431 89748
FLOCK 4BE-24            
1 60505U 24149AP  26087.80860072  .00023221  00000+0  58326-3 0  9996
2 60505  97.3739 171.4279 0004397 195.3012 164.8102 15.39981547 89989
LUR-1                   
1 60506U 24149AQ  26087.77678598  .00009280  00000+0  33229-3 0  9997
2 60506  97.3772 167.2441 0003309 210.1992 149.9057 15.28977185 89687
TANAGER-1               
1 60507U 24149AR  26087.36379119  .00024678  00000+0  54926-3 0  9995
2 60507  97.3762 180.9996 0007561 217.2755 142.7969 15.43596939 90566
EAGLEEYE                
1 60508U 24149AS  26087.78403552  .00080115  00000+0  10124-2 0  9990
2 60508  97.3745 177.4448 0003817 189.5622 170.5563 15.59271906 90363
FLOCK 4BE-29            
1 60509U 24149AT  26087.81893891  .00024039  00000+0  57815-3 0  9996
2 60509  97.3826 172.6465 0002808 197.4944 162.6206 15.41301228 90025
TRANSPORTER-11 OBJECT AU
1 60510U 24149AU  26087.76303949  .00018905  00000+0  50933-3 0  9991
2 60510  97.3754 170.9783 0003513 195.5593 164.5545 15.37872848 89946
FLOCK 4BE-2             
1 60511U 24149AV  26087.81175453  .00050840  00000+0  10745-2 0  9995
2 60511  97.3826 173.3132 0004137 197.4966 162.6140 15.44998834 90067
FLOCK 4BE-13            
1 60512U 24149AW  26087.75456141  .00020553  00000+0  52397-3 0  9993
2 60512  97.3737 171.4639 0004421 184.6941 175.4264 15.39551983 89989
FLOCK 4BE-27            
1 60513U 24149AX  26087.75059918  .00011555  00000+0  36481-3 0  9993
2 60513  97.3847 169.6456 0003387 209.6749 150.4301 15.32992973 89810
FLOCK 4BE-9             
1 60514U 24149AY  26087.75573901  .00018923  00000+0  50343-3 0  9996
2 60514  97.3809 171.3953 0002853 196.2414 163.8740 15.38263780 89940
FLOCK 4BE-8             
1 60515U 24149AZ  26087.75947946  .01224963  80888-3  22466-2 0  9995
2 60515  97.3543 176.1048 0009331 271.5899  88.4311 16.01416828 90285
FLOCK 4BE-6             
1 60516U 24149BA  26087.79162321  .00018329  00000+0  50377-3 0  9999
2 60516  97.3810 170.9274 0003549 199.4443 160.6667 15.37258293 89917
